{"type":"FeatureCollection","attribution":"© OpenStreetMap contributors, ODbL 1.0","source":"openstreetmap.org via Overpass API","regions":[{"name":"Kathmandu valley","file":"evidence/bus-stations-valley.json"},{"name":"Pokhara valley","file":"evidence/bus-stations-pokhara.json"},{"name":"Langtang road corridor (Trishuli, Battar, Kutumsang)","file":"evidence/bus-stations-langtang.json"}],"note":"Mapped bus stations and named bus stops, by region. Many are unnamed in OSM, which is itself information: a stop exists at these coordinates and the map does not say what it is called. The Langtang corridor is sparse because it is a road with a village on it, not a city with a stop list - and for Khumbu there are no stops at all, which is the truth rather than a gap: Namche is two days' walk from the road head.","features":[{"type":"Feature","properties":{"r":"kathmandu","n":"Macha Pokhari Bus Station"},"geometry":{"type":"Point","coordinates":[85.305724,27.735352]}},{"type":"Feature","properties":{"r":"kathmandu"},"geometry":{"type":"Point","coordinates":[85.31422,27.705701]}},{"type":"Feature","properties":{"r":"kathmandu","n":"Dhokashi"},"geometry":{"type":"Point","coordinates":[85.279034,27.670661]}},{"type":"Feature","properties":{"r":"kathmandu","n":"Kathmandu Bus Park"},"geometry":{"type":"Point","coordinates":[85.423097,27.672077]}},{"type":"Feature","properties":{"r":"kathmandu","n":"Lubhu Bus Station"},"geometry":{"type":"Point","coordinates":[85.373347,27.642768]}},{"type":"Feature","properties":{"r":"kathmandu","n":"Budhanilkantha Stop"},"geometry":{"type":"Point","coordinates":[85.362086,27.776832]}},{"type":"Feature","properties":{"r":"kathmandu","n":"Patan Dhoka"},"geometry":{"type":"Point","coordinates":[85.320748,27.679119]}},{"type":"Feature","properties":{"r":"kathmandu","n":"Machhegaon"},"geometry":{"type":"Point","coordinates":[85.254202,27.665065]}},{"type":"Feature","properties":{"r":"kathmandu","n":"पुरानो बानेश्वोर स्टेश १"},"geometry":{"type":"Point","coordinates":[85.34102,27.702808]}},{"type":"Feature","properties":{"r":"kathmandu","n":"Old Baneshwar Tempo Station"},"geometry":{"type":"Point","coordinates":[85.339887,27.701104]}},{"type":"Feature","properties":{"r":"kathmandu","n":"Sarkari Dhara"},"geometry":{"type":"Point","coordinates":[85.314237,27.726638]}},{"type":"Feature","properties":{"r":"kathmandu","n":"Nag Dhunga"},"geometry":{"type":"Point","coordinates":[85.209126,27.699471]}},{"type":"Feature","properties":{"r":"kathmandu","n":"Dhapasi Height Micro Station"},"geometry":{"type":"Point","coordinates":[85.338058,27.749862]}},{"type":"Feature","properties":{"r":"kathmandu","n":"Sunjarijal Bus Stop"},"geometry":{"type":"Point","coordinates":[85.420654,27.759287]}},{"type":"Feature","properties":{"r":"kathmandu","n":"School Bus Stop"},"geometry":{"type":"Point","coordinates":[85.358944,27.649797]}},{"type":"Feature","properties":{"r":"kathmandu","n":"Nilo micro park"},"geometry":{"type":"Point","coordinates":[85.36024,27.734881]}},{"type":"Feature","properties":{"r":"kathmandu","n":"Bode Bus Station"},"geometry":{"type":"Point","coordinates":[85.390437,27.689874]}},{"type":"Feature","properties":{"r":"kathmandu","n":"Buses to Delhi Bus station"},"geometry":{"type":"Point","coordinates":[85.364192,27.720964]}},{"type":"Feature","properties":{"r":"kathmandu","n":"Dholahiti bus station"},"geometry":{"type":"Point","coordinates":[85.318448,27.640322]}},{"type":"Feature","properties":{"r":"kathmandu","n":"Danchhi Bus Station"},"geometry":{"type":"Point","coordinates":[85.414722,27.726955]}},{"type":"Feature","properties":{"r":"kathmandu","n":"Tiwari Tol"},"geometry":{"type":"Point","coordinates":[85.393911,27.719082]}},{"type":"Feature","properties":{"r":"kathmandu","n":"Milan Chowk"},"geometry":{"type":"Point","coordinates":[85.39826,27.715716]}},{"type":"Feature","properties":{"r":"kathmandu","n":"Lamatar Dhungin Bus Park"},"geometry":{"type":"Point","coordinates":[85.395238,27.627984]}},{"type":"Feature","properties":{"r":"kathmandu","n":"New Bus Stand"},"geometry":{"type":"Point","coordinates":[85.3079,27.733354]}},{"type":"Feature","properties":{"r":"kathmandu","n":"पर्यटक बस स्टेशन"},"geometry":{"type":"Point","coordinates":[85.315117,27.711622]}},{"type":"Feature","properties":{"r":"kathmandu","n":"Micro Bus Station"},"geometry":{"type":"Point","coordinates":[85.326181,27.656971]}},{"type":"Feature","properties":{"r":"kathmandu","n":"Chunikhel Bus station"},"geometry":{"type":"Point","coordinates":[85.367443,27.753447]}},{"type":"Feature","properties":{"r":"kathmandu","n":"चाबहिल बस स्टेशन"},"geometry":{"type":"Point","coordinates":[85.34694,27.717901]}},{"type":"Feature","properties":{"r":"kathmandu","n":"Boratar Micro Station"},"geometry":{"type":"Point","coordinates":[85.295572,27.735681]}},{"type":"Feature","properties":{"r":"kathmandu","n":"Baniyataar Micro Station"},"geometry":{"type":"Point","coordinates":[85.318639,27.753789]}},{"type":"Feature","properties":{"r":"kathmandu","n":"Lubhu Bus Park"},"geometry":{"type":"Point","coordinates":[85.374614,27.642894]}},{"type":"Feature","properties":{"r":"kathmandu","n":"suryabinyak"},"geometry":{"type":"Point","coordinates":[85.427175,27.665345]}},{"type":"Feature","properties":{"r":"kathmandu","n":"Saraswatikhel buspark"},"geometry":{"type":"Point","coordinates":[85.399506,27.694894]}},{"type":"Feature","properties":{"r":"kathmandu","n":"Duwakot buspark"},"geometry":{"type":"Point","coordinates":[85.425849,27.712272]}},{"type":"Feature","properties":{"r":"kathmandu"},"geometry":{"type":"Point","coordinates":[85.41862,27.716809]}},{"type":"Feature","properties":{"r":"kathmandu","n":"Bus to Besisahar"},"geometry":{"type":"Point","coordinates":[85.310339,27.734553]}},{"type":"Feature","properties":{"r":"kathmandu"},"geometry":{"type":"Point","coordinates":[85.474626,27.712389]}},{"type":"Feature","properties":{"r":"kathmandu"},"geometry":{"type":"Point","coordinates":[85.365991,27.666775]}},{"type":"Feature","properties":{"r":"kathmandu","n":"Toudol Micro Station"},"geometry":{"type":"Point","coordinates":[85.290958,27.738459]}},{"type":"Feature","properties":{"r":"kathmandu"},"geometry":{"type":"Point","coordinates":[85.328309,27.755192]}},{"type":"Feature","properties":{"r":"kathmandu"},"geometry":{"type":"Point","coordinates":[85.35889,27.736711]}},{"type":"Feature","properties":{"r":"kathmandu"},"geometry":{"type":"Point","coordinates":[85.366705,27.665034]}},{"type":"Feature","properties":{"r":"kathmandu"},"geometry":{"type":"Point","coordinates":[85.369745,27.661086]}},{"type":"Feature","properties":{"r":"kathmandu","n":"नाख्खु बस स्टप"},"geometry":{"type":"Point","coordinates":[85.30577,27.661586]}},{"type":"Feature","properties":{"r":"kathmandu"},"geometry":{"type":"Point","coordinates":[85.351224,27.71997]}},{"type":"Feature","properties":{"r":"kathmandu"},"geometry":{"type":"Point","coordinates":[85.384462,27.737203]}},{"type":"Feature","properties":{"r":"kathmandu"},"geometry":{"type":"Point","coordinates":[85.281585,27.694197]}},{"type":"Feature","properties":{"r":"kathmandu","n":"Dhading Bus Park"},"geometry":{"type":"Point","coordinates":[85.306338,27.734772]}},{"type":"Feature","properties":{"r":"kathmandu"},"geometry":{"type":"Point","coordinates":[85.287532,27.719846]}},{"type":"Feature","properties":{"r":"kathmandu"},"geometry":{"type":"Point","coordinates":[85.309691,27.734858]}},{"type":"Feature","properties":{"r":"kathmandu"},"geometry":{"type":"Point","coordinates":[85.361129,27.774859]}},{"type":"Feature","properties":{"r":"kathmandu"},"geometry":{"type":"Point","coordinates":[85.300572,27.636004]}},{"type":"Feature","properties":{"r":"kathmandu"},"geometry":{"type":"Point","coordinates":[85.336578,27.739376]}},{"type":"Feature","properties":{"r":"kathmandu"},"geometry":{"type":"Point","coordinates":[85.297478,27.724673]}},{"type":"Feature","properties":{"r":"kathmandu"},"geometry":{"type":"Point","coordinates":[85.349563,27.732555]}},{"type":"Feature","properties":{"r":"kathmandu"},"geometry":{"type":"Point","coordinates":[85.306087,27.7484]}},{"type":"Feature","properties":{"r":"kathmandu"},"geometry":{"type":"Point","coordinates":[85.307716,27.75274]}},{"type":"Feature","properties":{"r":"kathmandu"},"geometry":{"type":"Point","coordinates":[85.282984,27.774096]}},{"type":"Feature","properties":{"r":"kathmandu"},"geometry":{"type":"Point","coordinates":[85.301624,27.748841]}},{"type":"Feature","properties":{"r":"kathmandu"},"geometry":{"type":"Point","coordinates":[85.340746,27.749177]}},{"type":"Feature","properties":{"r":"kathmandu"},"geometry":{"type":"Point","coordinates":[85.366783,27.694052]}},{"type":"Feature","properties":{"r":"kathmandu"},"geometry":{"type":"Point","coordinates":[85.279802,27.722476]}},{"type":"Feature","properties":{"r":"kathmandu"},"geometry":{"type":"Point","coordinates":[85.386664,27.73649]}},{"type":"Feature","properties":{"r":"kathmandu"},"geometry":{"type":"Point","coordinates":[85.312171,27.751836]}},{"type":"Feature","properties":{"r":"kathmandu"},"geometry":{"type":"Point","coordinates":[85.381117,27.732875]}},{"type":"Feature","properties":{"r":"kathmandu","n":"Tusal Bus stop"},"geometry":{"type":"Point","coordinates":[85.357863,27.720135]}},{"type":"Feature","properties":{"r":"kathmandu"},"geometry":{"type":"Point","coordinates":[85.368444,27.721267]}},{"type":"Feature","properties":{"r":"kathmandu"},"geometry":{"type":"Point","coordinates":[85.393392,27.637426]}},{"type":"Feature","properties":{"r":"kathmandu"},"geometry":{"type":"Point","coordinates":[85.465303,27.731071]}},{"type":"Feature","properties":{"r":"kathmandu"},"geometry":{"type":"Point","coordinates":[85.425054,27.74402]}},{"type":"Feature","properties":{"r":"kathmandu"},"geometry":{"type":"Point","coordinates":[85.375566,27.720643]}},{"type":"Feature","properties":{"r":"kathmandu"},"geometry":{"type":"Point","coordinates":[85.398239,27.677201]}},{"type":"Feature","properties":{"r":"kathmandu"},"geometry":{"type":"Point","coordinates":[85.271155,27.72261]}},{"type":"Feature","properties":{"r":"kathmandu"},"geometry":{"type":"Point","coordinates":[85.305812,27.735241]}},{"type":"Feature","properties":{"r":"kathmandu"},"geometry":{"type":"Point","coordinates":[85.300932,27.785062]}},{"type":"Feature","properties":{"r":"kathmandu"},"geometry":{"type":"Point","coordinates":[85.381118,27.739593]}},{"type":"Feature","properties":{"r":"kathmandu","n":"खहर चोक"},"geometry":{"type":"Point","coordinates":[85.355221,27.728892]}},{"type":"Feature","properties":{"r":"kathmandu"},"geometry":{"type":"Point","coordinates":[85.35502,27.695266]}},{"type":"Feature","properties":{"r":"kathmandu","n":"माइक्रोबस स्टप"},"geometry":{"type":"Point","coordinates":[85.303268,27.713873]}},{"type":"Feature","properties":{"r":"kathmandu","n":"Bus Stop"},"geometry":{"type":"Point","coordinates":[85.302662,27.71349]}},{"type":"Feature","properties":{"r":"kathmandu"},"geometry":{"type":"Point","coordinates":[85.305728,27.631388]}},{"type":"Feature","properties":{"r":"kathmandu"},"geometry":{"type":"Point","coordinates":[85.304701,27.642248]}},{"type":"Feature","properties":{"r":"kathmandu"},"geometry":{"type":"Point","coordinates":[85.283304,27.724119]}},{"type":"Feature","properties":{"r":"kathmandu"},"geometry":{"type":"Point","coordinates":[85.30248,27.708675]}},{"type":"Feature","properties":{"r":"kathmandu"},"geometry":{"type":"Point","coordinates":[85.301114,27.714059]}},{"type":"Feature","properties":{"r":"kathmandu"},"geometry":{"type":"Point","coordinates":[85.30524,27.649154]}},{"type":"Feature","properties":{"r":"kathmandu","n":"Buddhanilkantha Bus Stop"},"geometry":{"type":"Point","coordinates":[85.361867,27.776204]}},{"type":"Feature","properties":{"r":"kathmandu"},"geometry":{"type":"Point","coordinates":[85.412671,27.707688]}},{"type":"Feature","properties":{"r":"kathmandu"},"geometry":{"type":"Point","coordinates":[85.382649,27.721592]}},{"type":"Feature","properties":{"r":"kathmandu"},"geometry":{"type":"Point","coordinates":[85.376726,27.700996]}},{"type":"Feature","properties":{"r":"kathmandu"},"geometry":{"type":"Point","coordinates":[85.310726,27.734337]}},{"type":"Feature","properties":{"r":"kathmandu"},"geometry":{"type":"Point","coordinates":[85.316845,27.706126]}},{"type":"Feature","properties":{"r":"kathmandu"},"geometry":{"type":"Point","coordinates":[85.314897,27.663912]}},{"type":"Feature","properties":{"r":"kathmandu"},"geometry":{"type":"Point","coordinates":[85.281698,27.693576]}},{"type":"Feature","properties":{"r":"kathmandu"},"geometry":{"type":"Point","coordinates":[85.305739,27.735193]}},{"type":"Feature","properties":{"r":"kathmandu"},"geometry":{"type":"Point","coordinates":[85.321245,27.693892]}},{"type":"Feature","properties":{"r":"kathmandu","n":"Gopi Krishna Bus stop"},"geometry":{"type":"Point","coordinates":[85.345727,27.721682]}},{"type":"Feature","properties":{"r":"kathmandu","n":"Sukedhara"},"geometry":{"type":"Point","coordinates":[85.345722,27.727969]}},{"type":"Feature","properties":{"r":"kathmandu","n":"Dhumbarahi bus stop"},"geometry":{"type":"Point","coordinates":[85.344502,27.731557]}},{"type":"Feature","properties":{"r":"kathmandu","n":"Nepal Yatayat Bus Station"},"geometry":{"type":"Point","coordinates":[85.392777,27.712517]}},{"type":"Feature","properties":{"r":"kathmandu","n":"Sajha Yatayat"},"geometry":{"type":"Point","coordinates":[85.35693,27.700852]}},{"type":"Feature","properties":{"r":"kathmandu"},"geometry":{"type":"Point","coordinates":[85.382802,27.650414]}},{"type":"Feature","properties":{"r":"kathmandu","n":"Laboratory School Bus Station"},"geometry":{"type":"Point","coordinates":[85.29388,27.677154]}},{"type":"Feature","properties":{"r":"kathmandu","n":"Makalbari Bus Station"},"geometry":{"type":"Point","coordinates":[85.38682,27.737394]}},{"type":"Feature","properties":{"r":"kathmandu","n":"आचार्य टोल"},"geometry":{"type":"Point","coordinates":[85.262348,27.697411]}},{"type":"Feature","properties":{"r":"kathmandu","n":"नेपाल यातायात बसपार्क"},"geometry":{"type":"Point","coordinates":[85.342679,27.672931]}},{"type":"Feature","properties":{"r":"kathmandu","n":"Miteri Yatayat"},"geometry":{"type":"Point","coordinates":[85.311725,27.735148]}},{"type":"Feature","properties":{"r":"kathmandu"},"geometry":{"type":"Point","coordinates":[85.407227,27.67193]}},{"type":"Feature","properties":{"r":"kathmandu"},"geometry":{"type":"Point","coordinates":[85.378441,27.70281]}},{"type":"Feature","properties":{"r":"kathmandu"},"geometry":{"type":"Point","coordinates":[85.378726,27.70278]}},{"type":"Feature","properties":{"r":"kathmandu","n":"Shantinagar Ratnapark Bus Station"},"geometry":{"type":"Point","coordinates":[85.323409,27.641904]}},{"type":"Feature","properties":{"r":"kathmandu","n":"Budhanilkantha Bus Station"},"geometry":{"type":"Point","coordinates":[85.360444,27.778365]}},{"type":"Feature","properties":{"r":"kathmandu","n":"PulPari"},"geometry":{"type":"Point","coordinates":[85.437672,27.66989]}},{"type":"Feature","properties":{"r":"kathmandu"},"geometry":{"type":"Point","coordinates":[85.287427,27.730089]}},{"type":"Feature","properties":{"r":"kathmandu"},"geometry":{"type":"Point","coordinates":[85.265429,27.623038]}},{"type":"Feature","properties":{"r":"kathmandu"},"geometry":{"type":"Point","coordinates":[85.323102,27.667176]}},{"type":"Feature","properties":{"r":"kathmandu"},"geometry":{"type":"Point","coordinates":[85.437186,27.676148]}},{"type":"Feature","properties":{"r":"kathmandu"},"geometry":{"type":"Point","coordinates":[85.294327,27.737491]}},{"type":"Feature","properties":{"r":"kathmandu","n":"Shanti Chowk"},"geometry":{"type":"Point","coordinates":[85.279631,27.723998]}},{"type":"Feature","properties":{"r":"kathmandu","n":"Raichowk"},"geometry":{"type":"Point","coordinates":[85.278606,27.725362]}},{"type":"Feature","properties":{"r":"kathmandu"},"geometry":{"type":"Point","coordinates":[85.437712,27.677613]}},{"type":"Feature","properties":{"r":"kathmandu","n":"Sanopul"},"geometry":{"type":"Point","coordinates":[85.299552,27.746483]}},{"type":"Feature","properties":{"r":"kathmandu","n":"Gare routière pour Changu Narayan ( 50  rps)"},"geometry":{"type":"Point","coordinates":[85.43278,27.676564]}},{"type":"Feature","properties":{"r":"kathmandu","n":"Nikosera Microbus Park"},"geometry":{"type":"Point","coordinates":[85.398554,27.67921]}},{"type":"Feature","properties":{"r":"kathmandu","n":"Nepal Yatayat Bus Park"},"geometry":{"type":"Point","coordinates":[85.361529,27.667224]}},{"type":"Feature","properties":{"r":"kathmandu","n":"Naya Bus Park, Gongabu"},"geometry":{"type":"Point","coordinates":[85.308063,27.733165]}},{"type":"Feature","properties":{"r":"kathmandu","n":"लगनखेल बस पार्क"},"geometry":{"type":"Point","coordinates":[85.32312,27.66733]}},{"type":"Feature","properties":{"r":"kathmandu","n":"Bhaktapur Bus Park"},"geometry":{"type":"Point","coordinates":[85.316969,27.705645]}},{"type":"Feature","properties":{"r":"kathmandu","n":"Ratnapark Micro Bus Station"},"geometry":{"type":"Point","coordinates":[85.313508,27.701599]}},{"type":"Feature","properties":{"r":"kathmandu","n":"Tinkune Bus Station"},"geometry":{"type":"Point","coordinates":[85.34544,27.686263]}},{"type":"Feature","properties":{"r":"kathmandu","n":"Airport Bus Station"},"geometry":{"type":"Point","coordinates":[85.354052,27.70037]}},{"type":"Feature","properties":{"r":"kathmandu","n":"Greenline Travels"},"geometry":{"type":"Point","coordinates":[85.314981,27.713448]}},{"type":"Feature","properties":{"r":"kathmandu","n":"Bhaktapur Bus Park"},"geometry":{"type":"Point","coordinates":[85.422514,27.670663]}},{"type":"Feature","properties":{"r":"kathmandu","n":"Trolly Bus Station"},"geometry":{"type":"Point","coordinates":[85.339096,27.688583]}},{"type":"Feature","properties":{"r":"kathmandu","n":"Nepal Yatayat Bus Park"},"geometry":{"type":"Point","coordinates":[85.345573,27.722383]}},{"type":"Feature","properties":{"r":"kathmandu","n":"khari booat"},"geometry":{"type":"Point","coordinates":[85.306543,27.659737]}},{"type":"Feature","properties":{"r":"kathmandu","n":"Nepal Yatayaat Bus Station"},"geometry":{"type":"Point","coordinates":[85.366793,27.693994]}},{"type":"Feature","properties":{"r":"kathmandu"},"geometry":{"type":"Point","coordinates":[85.280426,27.673131]}},{"type":"Feature","properties":{"r":"kathmandu","n":"Sayukta Bus Park"},"geometry":{"type":"Point","coordinates":[85.364129,27.761979]}},{"type":"Feature","properties":{"r":"kathmandu","n":"Santinagar Ratnapark MicroBus Stand"},"geometry":{"type":"Point","coordinates":[85.323447,27.64186]}},{"type":"Feature","properties":{"r":"kathmandu","n":"Araniki Bus Station"},"geometry":{"type":"Point","coordinates":[85.354396,27.674585]}},{"type":"Feature","properties":{"r":"pokhara","n":"Firke Bus Stop"},"geometry":{"type":"Point","coordinates":[83.981483,28.228718]}},{"type":"Feature","properties":{"r":"pokhara","n":"Hall Chok Stop"},"geometry":{"type":"Point","coordinates":[83.990789,28.229535]}},{"type":"Feature","properties":{"r":"pokhara","n":"Mahendra Gufa Station"},"geometry":{"type":"Point","coordinates":[83.979894,28.271343]}},{"type":"Feature","properties":{"r":"pokhara","n":"Hari Chok Bus Station"},"geometry":{"type":"Point","coordinates":[83.983945,28.243212]}},{"type":"Feature","properties":{"r":"pokhara","n":"Hemja Phedi Bus Park"},"geometry":{"type":"Point","coordinates":[83.983867,28.243256]}},{"type":"Feature","properties":{"r":"pokhara","n":"City Bus Station"},"geometry":{"type":"Point","coordinates":[83.988662,28.243155]}},{"type":"Feature","properties":{"r":"pokhara","n":"Begnas Bus Park"},"geometry":{"type":"Point","coordinates":[84.090524,28.164189]}},{"type":"Feature","properties":{"r":"pokhara","n":"Naranthan Stop"},"geometry":{"type":"Point","coordinates":[83.99117,28.229837]}},{"type":"Feature","properties":{"r":"pokhara","n":"Wrc Campus Gate Bus Station"},"geometry":{"type":"Point","coordinates":[83.977718,28.256578]}},{"type":"Feature","properties":{"r":"pokhara","n":"Chhorepatan Bus Stop"},"geometry":{"type":"Point","coordinates":[83.953177,28.191479]}},{"type":"Feature","properties":{"r":"pokhara","n":"City Bus Station"},"geometry":{"type":"Point","coordinates":[83.988894,28.240178]}},{"type":"Feature","properties":{"r":"pokhara","n":"Dip Bus Stop"},"geometry":{"type":"Point","coordinates":[83.980243,28.254033]}},{"type":"Feature","properties":{"r":"pokhara","n":"Kalikasthan"},"geometry":{"type":"Point","coordinates":[84.044166,28.14424]}},{"type":"Feature","properties":{"r":"pokhara","n":"Bagar Bus Station"},"geometry":{"type":"Point","coordinates":[83.988825,28.240171]}},{"type":"Feature","properties":{"r":"pokhara","n":"Sahid Chok"},"geometry":{"type":"Point","coordinates":[83.969769,28.201513]}},{"type":"Feature","properties":{"r":"pokhara","n":"Ratna Chowk"},"geometry":{"type":"Point","coordinates":[83.974995,28.205454]}},{"type":"Feature","properties":{"r":"pokhara","n":"Bagmara"},"geometry":{"type":"Point","coordinates":[84.055997,28.136128]}},{"type":"Feature","properties":{"r":"pokhara","n":"Milanchok Bus Stop"},"geometry":{"type":"Point","coordinates":[84.084825,28.154889]}},{"type":"Feature","properties":{"r":"pokhara","n":"Electricity Office Bus Stop"},"geometry":{"type":"Point","coordinates":[83.976766,28.216876]}},{"type":"Feature","properties":{"r":"pokhara","n":"Kharane Phant"},"geometry":{"type":"Point","coordinates":[84.05252,28.187212]}},{"type":"Feature","properties":{"r":"pokhara","n":"Mahendra Pul - Chipledhunga - Lakside"},"geometry":{"type":"Point","coordinates":[83.990852,28.223647]}},{"type":"Feature","properties":{"r":"pokhara","n":"Mahendrapul - Bagar"},"geometry":{"type":"Point","coordinates":[83.990974,28.224645]}},{"type":"Feature","properties":{"r":"pokhara","n":"Nadipur Bus Stop"},"geometry":{"type":"Point","coordinates":[83.990486,28.233571]}},{"type":"Feature","properties":{"r":"pokhara","n":"Jarebar"},"geometry":{"type":"Point","coordinates":[83.966715,28.211602]}},{"type":"Feature","properties":{"r":"pokhara","n":"Nareswar"},"geometry":{"type":"Point","coordinates":[83.964035,28.21178]}},{"type":"Feature","properties":{"r":"pokhara","n":"Bus stop Lekhnath,Damauli"},"geometry":{"type":"Point","coordinates":[83.987792,28.223379]}},{"type":"Feature","properties":{"r":"pokhara","n":"chipledhunga"},"geometry":{"type":"Point","coordinates":[83.987771,28.223337]}},{"type":"Feature","properties":{"r":"pokhara","n":"Pokhara Syangja bus"},"geometry":{"type":"Point","coordinates":[83.985281,28.209147]}},{"type":"Feature","properties":{"r":"pokhara","n":"city bus"},"geometry":{"type":"Point","coordinates":[83.98583,28.209979]}},{"type":"Feature","properties":{"r":"pokhara","n":"Bus stop for east west and kathmandu"},"geometry":{"type":"Point","coordinates":[83.987661,28.208727]}},{"type":"Feature","properties":{"r":"pokhara","n":"Gothadi Bus Stop"},"geometry":{"type":"Point","coordinates":[83.963769,28.24488]}},{"type":"Feature","properties":{"r":"pokhara","n":"Campus Gate Bus Stop"},"geometry":{"type":"Point","coordinates":[83.988946,28.23976]}},{"type":"Feature","properties":{"r":"pokhara","n":"Baglung/Beni Jeep station"},"geometry":{"type":"Point","coordinates":[83.982783,28.234485]}},{"type":"Feature","properties":{"r":"pokhara","n":"Gandaki Hospital Bus Stand"},"geometry":{"type":"Point","coordinates":[83.998205,28.211509]}},{"type":"Feature","properties":{"r":"pokhara","n":"Bagar Bus Stop"},"geometry":{"type":"Point","coordinates":[83.988896,28.240065]}},{"type":"Feature","properties":{"r":"pokhara","n":"Chipledhunga Bus Stop"},"geometry":{"type":"Point","coordinates":[83.987393,28.223778]}},{"type":"Feature","properties":{"r":"pokhara","n":"Kanya Campus Stop"},"geometry":{"type":"Point","coordinates":[83.991063,28.231656]}},{"type":"Feature","properties":{"r":"pokhara","n":"Buddha Chowk Bus Stand"},"geometry":{"type":"Point","coordinates":[83.994589,28.206491]}},{"type":"Feature","properties":{"r":"pokhara","n":"Phirke Bus Stop"},"geometry":{"type":"Point","coordinates":[83.977126,28.212438]}},{"type":"Feature","properties":{"r":"pokhara","n":"Wrc Campus Gate Bus Station"},"geometry":{"type":"Point","coordinates":[83.976825,28.258083]}},{"type":"Feature","properties":{"r":"pokhara","n":"Garipatan Bus Stop"},"geometry":{"type":"Point","coordinates":[83.977071,28.19219]}},{"type":"Feature","properties":{"r":"pokhara","n":"Srijana Chowk Bus Stop"},"geometry":{"type":"Point","coordinates":[83.981472,28.211448]}},{"type":"Feature","properties":{"r":"pokhara","n":"siddartha Chowk Bus Stop"},"geometry":{"type":"Point","coordinates":[83.984655,28.224435]}},{"type":"Feature","properties":{"r":"pokhara","n":"Amar Singh Chowk Bus Stand"},"geometry":{"type":"Point","coordinates":[84.001617,28.204786]}},{"type":"Feature","properties":{"r":"pokhara","n":"Buddha Chowk Bus Stand"},"geometry":{"type":"Point","coordinates":[83.995025,28.206203]}},{"type":"Feature","properties":{"r":"pokhara","n":"Chauthe Bus Station"},"geometry":{"type":"Point","coordinates":[84.023802,28.192822]}},{"type":"Feature","properties":{"r":"pokhara","n":"Hospital Chowk Bus Stand"},"geometry":{"type":"Point","coordinates":[83.999374,28.212579]}},{"type":"Feature","properties":{"r":"pokhara","n":"Aarchalbot bus Stop"},"geometry":{"type":"Point","coordinates":[83.983109,28.234572]}},{"type":"Feature","properties":{"r":"pokhara","n":"Bindabasini Bus Stop"},"geometry":{"type":"Point","coordinates":[83.983423,28.237595]}},{"type":"Feature","properties":{"r":"pokhara","n":"Gadatanta chowk Bus Stop"},"geometry":{"type":"Point","coordinates":[83.977827,28.221053]}},{"type":"Feature","properties":{"r":"pokhara","n":"Local Bus Stand"},"geometry":{"type":"Point","coordinates":[83.982677,28.232414]}},{"type":"Feature","properties":{"r":"pokhara","n":"Parsyang Bus Stop"},"geometry":{"type":"Point","coordinates":[83.979217,28.223398]}},{"type":"Feature","properties":{"r":"pokhara","n":"Sasastra Gate Bus Stop"},"geometry":{"type":"Point","coordinates":[83.977175,28.218199]}},{"type":"Feature","properties":{"r":"pokhara","n":"Srijana Chowk Bus Stop"},"geometry":{"type":"Point","coordinates":[83.981029,28.211559]}},{"type":"Feature","properties":{"r":"pokhara","n":"Parsyang Bus Stop"},"geometry":{"type":"Point","coordinates":[83.980364,28.224918]}},{"type":"Feature","properties":{"r":"pokhara","n":"Aadarsha Chowk Bus Stop"},"geometry":{"type":"Point","coordinates":[84.063022,28.151846]}},{"type":"Feature","properties":{"r":"pokhara","n":"Masina bus station"},"geometry":{"type":"Point","coordinates":[84.020457,28.167947]}},{"type":"Feature","properties":{"r":"pokhara","n":"Majheripatan Bus Station"},"geometry":{"type":"Point","coordinates":[84.023432,28.177702]}},{"type":"Feature","properties":{"r":"pokhara","n":"Thati Patan Station"},"geometry":{"type":"Point","coordinates":[83.994095,28.18519]}},{"type":"Feature","properties":{"r":"pokhara"},"geometry":{"type":"Point","coordinates":[83.955911,28.207939]}},{"type":"Feature","properties":{"r":"pokhara","n":"Chamere cave BUS stand"},"geometry":{"type":"Point","coordinates":[83.97354,28.26354]}},{"type":"Feature","properties":{"r":"pokhara","n":"City Bus Stand"},"geometry":{"type":"Point","coordinates":[83.984338,28.210809]}},{"type":"Feature","properties":{"r":"pokhara","n":"Tiklang Bus Stop"},"geometry":{"type":"Point","coordinates":[84.071845,28.126283]}},{"type":"Feature","properties":{"r":"pokhara","n":"Ghatichhina Stop"},"geometry":{"type":"Point","coordinates":[83.862192,28.23846]}},{"type":"Feature","properties":{"r":"pokhara","n":"Suikhet Bus Stop"},"geometry":{"type":"Point","coordinates":[83.902363,28.285662]}},{"type":"Feature","properties":{"r":"pokhara","n":"Health Post Stop"},"geometry":{"type":"Point","coordinates":[83.96328,28.336458]}},{"type":"Feature","properties":{"r":"pokhara","n":"Ward number-19 Bhawan stop"},"geometry":{"type":"Point","coordinates":[83.967225,28.265939]}},{"type":"Feature","properties":{"r":"pokhara","n":"L-angle Stop"},"geometry":{"type":"Point","coordinates":[83.951311,28.284356]}},{"type":"Feature","properties":{"r":"pokhara","n":"Akala mandir Stop"},"geometry":{"type":"Point","coordinates":[83.95564,28.275631]}},{"type":"Feature","properties":{"r":"pokhara","n":"Kalika Campus Stop"},"geometry":{"type":"Point","coordinates":[84.003385,28.193542]}},{"type":"Feature","properties":{"r":"pokhara","n":"Milan Chok Bus Stop"},"geometry":{"type":"Point","coordinates":[83.936708,28.27781]}},{"type":"Feature","properties":{"r":"pokhara"},"geometry":{"type":"Point","coordinates":[84.000802,28.187988]}},{"type":"Feature","properties":{"r":"pokhara"},"geometry":{"type":"Point","coordinates":[84.00278,28.197344]}},{"type":"Feature","properties":{"r":"pokhara","n":"City Bus Stand"},"geometry":{"type":"Point","coordinates":[83.983691,28.210442]}},{"type":"Feature","properties":{"r":"pokhara","n":"City Bus"},"geometry":{"type":"Point","coordinates":[83.994275,28.206224]}},{"type":"Feature","properties":{"r":"pokhara","n":"City Bus"},"geometry":{"type":"Point","coordinates":[83.984704,28.211178]}},{"type":"Feature","properties":{"r":"pokhara","n":"City Bus"},"geometry":{"type":"Point","coordinates":[83.9845,28.211222]}},{"type":"Feature","properties":{"r":"pokhara","n":"City Bus"},"geometry":{"type":"Point","coordinates":[83.985408,28.213403]}},{"type":"Feature","properties":{"r":"pokhara","n":"City Bus"},"geometry":{"type":"Point","coordinates":[83.986027,28.216305]}},{"type":"Feature","properties":{"r":"pokhara","n":"City Bus"},"geometry":{"type":"Point","coordinates":[83.986884,28.217637]}},{"type":"Feature","properties":{"r":"pokhara","n":"City Bus"},"geometry":{"type":"Point","coordinates":[83.986619,28.219017]}},{"type":"Feature","properties":{"r":"pokhara","n":"City Bus"},"geometry":{"type":"Point","coordinates":[83.986956,28.220524]}},{"type":"Feature","properties":{"r":"pokhara","n":"City Bus"},"geometry":{"type":"Point","coordinates":[83.987217,28.220839]}},{"type":"Feature","properties":{"r":"pokhara","n":"City Bus"},"geometry":{"type":"Point","coordinates":[83.987539,28.222242]}},{"type":"Feature","properties":{"r":"pokhara","n":"City Bus"},"geometry":{"type":"Point","coordinates":[83.990885,28.226594]}},{"type":"Feature","properties":{"r":"pokhara","n":"City Bus"},"geometry":{"type":"Point","coordinates":[83.989952,28.235664]}},{"type":"Feature","properties":{"r":"pokhara","n":"City Bus"},"geometry":{"type":"Point","coordinates":[83.98873,28.242579]}},{"type":"Feature","properties":{"r":"pokhara","n":"City Bus Stand"},"geometry":{"type":"Point","coordinates":[83.993049,28.222867]}},{"type":"Feature","properties":{"r":"pokhara"},"geometry":{"type":"Point","coordinates":[83.975229,28.213897]}},{"type":"Feature","properties":{"r":"pokhara"},"geometry":{"type":"Point","coordinates":[83.918448,28.194169]}},{"type":"Feature","properties":{"r":"pokhara"},"geometry":{"type":"Point","coordinates":[83.982624,28.232184]}},{"type":"Feature","properties":{"r":"pokhara"},"geometry":{"type":"Point","coordinates":[83.870274,28.105794]}},{"type":"Feature","properties":{"r":"pokhara"},"geometry":{"type":"Point","coordinates":[83.859579,28.113817]}},{"type":"Feature","properties":{"r":"pokhara","n":"Chipledhunga Bus Stop"},"geometry":{"type":"Point","coordinates":[83.987591,28.223335]}},{"type":"Feature","properties":{"r":"pokhara","n":"Hemja Bus Stop"},"geometry":{"type":"Point","coordinates":[83.943046,28.273019]}},{"type":"Feature","properties":{"r":"pokhara","n":"Badahare Chok Bus Stop"},"geometry":{"type":"Point","coordinates":[83.95333,28.267889]}},{"type":"Feature","properties":{"r":"pokhara","n":"Baskot Bus station"},"geometry":{"type":"Point","coordinates":[83.889676,28.290398]}},{"type":"Feature","properties":{"r":"pokhara","n":"Melbot Bus stop"},"geometry":{"type":"Point","coordinates":[83.934455,28.285802]}},{"type":"Feature","properties":{"r":"pokhara","n":"Sahid Smriti bus Station"},"geometry":{"type":"Point","coordinates":[83.97309,28.265175]}},{"type":"Feature","properties":{"r":"pokhara","n":"Lions rest point"},"geometry":{"type":"Point","coordinates":[83.969737,28.260849]}},{"type":"Feature","properties":{"r":"pokhara","n":"Bus Stop"},"geometry":{"type":"Point","coordinates":[83.957989,28.190001]}},{"type":"Feature","properties":{"r":"pokhara","n":"City Bus stand"},"geometry":{"type":"Point","coordinates":[83.971326,28.192248]}},{"type":"Feature","properties":{"r":"pokhara","n":"Bus stop"},"geometry":{"type":"Point","coordinates":[84.069425,28.164717]}},{"type":"Feature","properties":{"r":"pokhara","n":"PU Bus Stop"},"geometry":{"type":"Point","coordinates":[84.08353,28.144553]}},{"type":"Feature","properties":{"r":"pokhara","n":"Airport Chok"},"geometry":{"type":"Point","coordinates":[83.977642,28.199671]}},{"type":"Feature","properties":{"r":"pokhara","n":"0 K.M Bus Stop"},"geometry":{"type":"Point","coordinates":[83.975611,28.212941]}},{"type":"Feature","properties":{"r":"pokhara","n":"Bus Station"},"geometry":{"type":"Point","coordinates":[83.972429,28.192359]}},{"type":"Feature","properties":{"r":"pokhara","n":"City Bus Stop"},"geometry":{"type":"Point","coordinates":[83.971961,28.192708]}},{"type":"Feature","properties":{"r":"pokhara","n":"Bus Stop"},"geometry":{"type":"Point","coordinates":[84.084035,28.146998]}},{"type":"Feature","properties":{"r":"pokhara","n":"PU Bus Stop"},"geometry":{"type":"Point","coordinates":[84.086271,28.144334]}},{"type":"Feature","properties":{"r":"pokhara","n":"Sangam Chowk Stop"},"geometry":{"type":"Point","coordinates":[83.978954,28.268322]}},{"type":"Feature","properties":{"r":"pokhara","n":"Khudi Nagarchok Bus Stop"},"geometry":{"type":"Point","coordinates":[84.082178,28.150226]}},{"type":"Feature","properties":{"r":"pokhara"},"geometry":{"type":"Point","coordinates":[83.982736,28.190338]}},{"type":"Feature","properties":{"r":"pokhara","n":"City Bus Stop"},"geometry":{"type":"Point","coordinates":[83.986461,28.217977]}},{"type":"Feature","properties":{"r":"pokhara","n":"Pratishyalaya"},"geometry":{"type":"Point","coordinates":[84.075184,28.164058]}},{"type":"Feature","properties":{"r":"pokhara","n":"Pratishyalaya"},"geometry":{"type":"Point","coordinates":[84.082697,28.132813]}},{"type":"Feature","properties":{"r":"pokhara","n":"Kalikathan Bus Stop"},"geometry":{"type":"Point","coordinates":[84.043995,28.144264]}},{"type":"Feature","properties":{"r":"pokhara"},"geometry":{"type":"Point","coordinates":[84.043533,28.123623]}},{"type":"Feature","properties":{"r":"pokhara","n":"Bus Stop"},"geometry":{"type":"Point","coordinates":[84.034636,28.149631]}},{"type":"Feature","properties":{"r":"pokhara","n":"Pratishyalaya"},"geometry":{"type":"Point","coordinates":[84.040368,28.147014]}},{"type":"Feature","properties":{"r":"pokhara","n":"Pratishyalaya"},"geometry":{"type":"Point","coordinates":[84.066479,28.131438]}},{"type":"Feature","properties":{"r":"pokhara","n":"Tutungaa Bus Station"},"geometry":{"type":"Point","coordinates":[83.992036,28.180494]}},{"type":"Feature","properties":{"r":"pokhara","n":"Pratishyalaya"},"geometry":{"type":"Point","coordinates":[84.049971,28.139316]}},{"type":"Feature","properties":{"r":"pokhara","n":"Pratishyalaya"},"geometry":{"type":"Point","coordinates":[84.053824,28.210037]}},{"type":"Feature","properties":{"r":"pokhara","n":"City Bus"},"geometry":{"type":"Point","coordinates":[83.985299,28.212506]}},{"type":"Feature","properties":{"r":"pokhara","n":"Pratishyalaya"},"geometry":{"type":"Point","coordinates":[84.090665,28.213048]}},{"type":"Feature","properties":{"r":"pokhara","n":"City Bus"},"geometry":{"type":"Point","coordinates":[83.989071,28.215395]}},{"type":"Feature","properties":{"r":"pokhara","n":"City Bus"},"geometry":{"type":"Point","coordinates":[83.991406,28.220769]}},{"type":"Feature","properties":{"r":"pokhara","n":"City Bus"},"geometry":{"type":"Point","coordinates":[83.991212,28.222146]}},{"type":"Feature","properties":{"r":"pokhara","n":"City Bus"},"geometry":{"type":"Point","coordinates":[83.986175,28.210234]}},{"type":"Feature","properties":{"r":"pokhara","n":"City Bus"},"geometry":{"type":"Point","coordinates":[83.99088,28.219306]}},{"type":"Feature","properties":{"r":"pokhara","n":"Bus Stop"},"geometry":{"type":"Point","coordinates":[83.984308,28.207906]}},{"type":"Feature","properties":{"r":"pokhara","n":"Bus Stop"},"geometry":{"type":"Point","coordinates":[83.987585,28.208576]}},{"type":"Feature","properties":{"r":"pokhara","n":"0 K.M Bus Stop"},"geometry":{"type":"Point","coordinates":[83.975362,28.212708]}},{"type":"Feature","properties":{"r":"pokhara","n":"BUS Stop"},"geometry":{"type":"Point","coordinates":[84.096871,28.113467]}},{"type":"Feature","properties":{"r":"pokhara","n":"Thulakhet Bus Stop"},"geometry":{"type":"Point","coordinates":[83.873955,28.246555]}},{"type":"Feature","properties":{"r":"pokhara","n":"Lamachaur Chok"},"geometry":{"type":"Point","coordinates":[83.972287,28.261504]}},{"type":"Feature","properties":{"r":"pokhara","n":"Kharapani-Bagar station"},"geometry":{"type":"Point","coordinates":[83.988743,28.243566]}},{"type":"Feature","properties":{"r":"pokhara","n":"Health Post Stop"},"geometry":{"type":"Point","coordinates":[83.9811,28.258693]}},{"type":"Feature","properties":{"r":"pokhara","n":"Trout Farm Stop"},"geometry":{"type":"Point","coordinates":[83.964583,28.330641]}},{"type":"Feature","properties":{"r":"pokhara","n":"PN Campus 2nd Gate Stop"},"geometry":{"type":"Point","coordinates":[83.988673,28.241737]}},{"type":"Feature","properties":{"r":"pokhara","n":"Tallo Dip Stop"},"geometry":{"type":"Point","coordinates":[83.983137,28.254205]}},{"type":"Feature","properties":{"r":"pokhara","n":"Manipal College Stop"},"geometry":{"type":"Point","coordinates":[83.985795,28.251381]}},{"type":"Feature","properties":{"r":"pokhara","n":"Nayapul Stop"},"geometry":{"type":"Point","coordinates":[83.979689,28.266293]}},{"type":"Feature","properties":{"r":"pokhara","n":"Sundar Phid Stop"},"geometry":{"type":"Point","coordinates":[83.986219,28.248317]}},{"type":"Feature","properties":{"r":"pokhara","n":"Chitapani Stop"},"geometry":{"type":"Point","coordinates":[83.954261,28.289455]}},{"type":"Feature","properties":{"r":"pokhara","n":"Amardip Stop"},"geometry":{"type":"Point","coordinates":[83.982201,28.255817]}},{"type":"Feature","properties":{"r":"pokhara","n":"Madhyam Path Stop"},"geometry":{"type":"Point","coordinates":[83.979474,28.261309]}},{"type":"Feature","properties":{"r":"pokhara","n":"KI Singh Pul Stop"},"geometry":{"type":"Point","coordinates":[83.988858,28.245759]}},{"type":"Feature","properties":{"r":"pokhara","n":"Dadathok stop"},"geometry":{"type":"Point","coordinates":[83.981587,28.257223]}},{"type":"Feature","properties":{"r":"pokhara","n":"Bank Chowk Stop"},"geometry":{"type":"Point","coordinates":[83.9886,28.242828]}},{"type":"Feature","properties":{"r":"pokhara","n":"Ganesh Mandir Stop"},"geometry":{"type":"Point","coordinates":[83.979815,28.264367]}},{"type":"Feature","properties":{"r":"pokhara","n":"Jogimadi Station"},"geometry":{"type":"Point","coordinates":[83.993527,28.28802]}},{"type":"Feature","properties":{"r":"pokhara","n":"Health Post Stop"},"geometry":{"type":"Point","coordinates":[83.958674,28.309475]}},{"type":"Feature","properties":{"r":"pokhara","n":"Mahendra Gupha Stop"},"geometry":{"type":"Point","coordinates":[83.980019,28.271102]}},{"type":"Feature","properties":{"r":"pokhara","n":"Maidan Stop"},"geometry":{"type":"Point","coordinates":[83.979489,28.263145]}},{"type":"Feature","properties":{"r":"pokhara","n":"City Bus Stand"},"geometry":{"type":"Point","coordinates":[83.986719,28.209134]}},{"type":"Feature","properties":{"r":"pokhara"},"geometry":{"type":"Point","coordinates":[83.987802,28.212224]}},{"type":"Feature","properties":{"r":"pokhara"},"geometry":{"type":"Point","coordinates":[83.987867,28.21208]}},{"type":"Feature","properties":{"r":"pokhara"},"geometry":{"type":"Point","coordinates":[83.946862,28.270792]}},{"type":"Feature","properties":{"r":"pokhara"},"geometry":{"type":"Point","coordinates":[83.85154,28.283882]}},{"type":"Feature","properties":{"r":"pokhara","n":"Tundikhel Micro Bus Station"},"geometry":{"type":"Point","coordinates":[83.986442,28.241628]}},{"type":"Feature","properties":{"r":"pokhara","n":"Bus Stop"},"geometry":{"type":"Point","coordinates":[83.949808,28.184565]}},{"type":"Feature","properties":{"r":"pokhara","n":"Bus Stand"},"geometry":{"type":"Point","coordinates":[83.978475,28.222704]}},{"type":"Feature","properties":{"r":"pokhara","n":"Bus Stand"},"geometry":{"type":"Point","coordinates":[83.977083,28.218677]}},{"type":"Feature","properties":{"r":"pokhara","n":"Damauli-Pokhara Bus Stop"},"geometry":{"type":"Point","coordinates":[83.987489,28.208903]}},{"type":"Feature","properties":{"r":"pokhara"},"geometry":{"type":"Point","coordinates":[83.950698,28.224444]}},{"type":"Feature","properties":{"r":"pokhara","n":"Buses to Kathmandu"},"geometry":{"type":"Point","coordinates":[83.986921,28.209056]}},{"type":"Feature","properties":{"r":"pokhara"},"geometry":{"type":"Point","coordinates":[83.964477,28.33325]}},{"type":"Feature","properties":{"r":"pokhara","n":"Hallan Chowk"},"geometry":{"type":"Point","coordinates":[83.957763,28.213991]}},{"type":"Feature","properties":{"r":"pokhara","n":"Vhakunde Bus Stop"},"geometry":{"type":"Point","coordinates":[83.922783,28.232975]}},{"type":"Feature","properties":{"r":"pokhara"},"geometry":{"type":"Point","coordinates":[83.982872,28.232353]}},{"type":"Feature","properties":{"r":"pokhara","n":"Baglung Bus Park"},"geometry":{"type":"Point","coordinates":[83.982998,28.232023]}},{"type":"Feature","properties":{"r":"pokhara","n":"Old Bus Park"},"geometry":{"type":"Point","coordinates":[83.986553,28.207825]}},{"type":"Feature","properties":{"r":"pokhara","n":"Foresty Bus Station"},"geometry":{"type":"Point","coordinates":[83.990516,28.188798]}},{"type":"Feature","properties":{"r":"pokhara"},"geometry":{"type":"Point","coordinates":[83.99479,28.20628]}},{"type":"Feature","properties":{"r":"pokhara"},"geometry":{"type":"Point","coordinates":[83.977604,28.256671]}},{"type":"Feature","properties":{"r":"pokhara","n":"Pratishyalaya"},"geometry":{"type":"Point","coordinates":[84.087773,28.142503]}},{"type":"Feature","properties":{"r":"pokhara","n":"Khudi Bus Stop"},"geometry":{"type":"Point","coordinates":[84.083278,28.148234]}},{"type":"Feature","properties":{"r":"pokhara","n":"Main bus station"},"geometry":{"type":"Point","coordinates":[83.972511,28.200861]}},{"type":"Feature","properties":{"r":"langtang","n":"Chhimi Bus Stop"},"geometry":{"type":"Point","coordinates":[85.586064,27.95296]}},{"type":"Feature","properties":{"r":"langtang","n":"Hattigauda Chock Bus Stop"},"geometry":{"type":"Point","coordinates":[85.139455,27.923467]}},{"type":"Feature","properties":{"r":"langtang","n":"Bomotang \"jongdili bus stations {Bomotang ,Ttrshuli To Ktm}"},"geometry":{"type":"Point","coordinates":[85.100059,27.991828]}},{"type":"Feature","properties":{"r":"langtang"},"geometry":{"type":"Point","coordinates":[85.107681,27.969759]}},{"type":"Feature","properties":{"r":"langtang","n":"Melamchighyang Bus Stop"},"geometry":{"type":"Point","coordinates":[85.523626,28.017372]}},{"type":"Feature","properties":{"r":"langtang"},"geometry":{"type":"Point","coordinates":[85.24503,27.987507]}},{"type":"Feature","properties":{"r":"langtang"},"geometry":{"type":"Point","coordinates":[85.21307,28.002005]}},{"type":"Feature","properties":{"r":"langtang"},"geometry":{"type":"Point","coordinates":[85.223918,27.995918]}},{"type":"Feature","properties":{"r":"langtang"},"geometry":{"type":"Point","coordinates":[85.23331,27.980432]}},{"type":"Feature","properties":{"r":"langtang","n":"Kutumsang"},"geometry":{"type":"Point","coordinates":[85.4852,27.92978]}},{"type":"Feature","properties":{"r":"langtang","n":"Ticket bus counter"},"geometry":{"type":"Point","coordinates":[85.296622,28.112167]}},{"type":"Feature","properties":{"r":"langtang","n":"Bus to Kathmandu"},"geometry":{"type":"Point","coordinates":[85.479032,27.902567]}},{"type":"Feature","properties":{"r":"langtang","n":"Trishuli Bus Station"},"geometry":{"type":"Point","coordinates":[85.14766,27.921749]}},{"type":"Feature","properties":{"r":"langtang","n":"Battar buspark"},"geometry":{"type":"Point","coordinates":[85.142566,27.902786]}}]}